NORAD_CAT_ID,OBJECT_NAME,OBJECT_TYPE,EPOCH,MEAN_MOTION,ECCENTRICITY,INCLINATION,RA_OF_ASC_NODE,ARG_OF_PERICENTER,MEAN_ANOMALY,BSTAR,MEAN_MOTION_DOT,MEAN_MOTION_DDOT,TLE_LINE0,TLE_LINE1,TLE_LINE2,SEMIMAJOR_AXIS,PERIOD,APOGEE,PERIGEE,DECAYED
52501.0,STARLINK-3907,PAYLOAD,2023-03-18 11:05:02,15.10491989,0.0001395,53.2135,249.6876,98.0679,262.0472,0.0003398,5.371e-05,0.0,0 STARLINK-3907,1 52501U 22049BC  23077.46183046  .00005371  00000-0  33980-3 0  9993,2 52501  53.2135 249.6876 0001395  98.0679 262.0472 15.10491989 48421,6912.836,95.333,535.665,533.736,0.0
52501.0,STARLINK-3907,PAYLOAD,2023-03-18 19:01:26,15.10499011,0.0001147,53.2132,248.1985,93.2231,266.8893,0.00080373,0.00013121,0.0,0 STARLINK-3907,1 52501U 22049BC  23077.79266825  .00013121  00000-0  80373-3 0  9996,2 52501  53.2132 248.1985 0001147  93.2231 266.8893 15.10499011 48310,6912.814,95.333,535.472,533.886,0.0
52501.0,STARLINK-3907,PAYLOAD,2023-03-19 10:54:19,15.10366655,0.0001088,53.2132,245.2192,115.0676,245.043,-0.0024761,-0.00041153,0.0,0 STARLINK-3907,1 52501U 22049BC  23078.45439346 -.00041153  00000-0 -24761-2 0  9996,2 52501  53.2132 245.2192 0001088 115.0676 245.0430 15.10366655 48579,6913.218,95.341,535.835,534.331,0.0
52501.0,STARLINK-3907,PAYLOAD,2023-03-19 17:15:35,15.10084944,0.0001135,53.2142,244.0291,83.6296,276.4825,-0.0099663,-0.00160786,0.0,0 STARLINK-3907,1 52501U 22049BC  23078.71916341 -.00160786  00000-0 -99663-2 0  9997,2 52501  53.2142 244.0291 0001135  83.6296 276.4825 15.10084944 48617,6914.078,95.359,536.727,535.158,0.0
52501.0,STARLINK-3907,PAYLOAD,2023-03-20 04:22:55,15.0972829,0.0001487,53.2151,241.9476,65.2499,294.8649,-0.01159,-0.00184502,0.0,0 STARLINK-3907,1 52501U 22049BC  23079.18258602 -.00184502  00000-0 -11590-1 0  9992,2 52501  53.2151 241.9476 0001487  65.2499 294.8649 15.09728290 48681,6915.167,95.381,538.06,536.003,0.0
52501.0,STARLINK-3907,PAYLOAD,2023-03-20 13:55:04,15.09369719,0.0001667,53.2139,240.1612,117.0405,243.0757,-0.011089,-0.0017504,0.0,0 STARLINK-3907,1 52501U 22049BC  23079.57991822 -.00175040  00000-0 -11089-1 0  9993,2 52501  53.2139 240.1612 0001667 117.0405 243.0757 15.09369719 48743,6916.262,95.404,539.28,536.974,0.0
52501.0,STARLINK-3907,PAYLOAD,2023-03-20 18:41:14,15.09104233,0.0001444,53.2153,239.27,73.1345,286.9806,-0.014662,-0.0022798,0.0,0 STARLINK-3907,1 52501U 22049BC  23079.77864334 -.00227980  00000-0 -14662-1 0  9993,2 52501  53.2153 239.2700 0001444  73.1345 286.9806 15.09104233 48776,6917.073,95.421,539.937,537.939,0.0
52501.0,STARLINK-3907,PAYLOAD,2023-03-21 10:00:00,15.08829121,0.0001417,53.2151,236.4042,92.3463,135.3096,0.0029011,0.00046172,0.0,0 STARLINK-3907,1 52501U 22049BC  23080.41667824  .00046172  00000-0  29011-2 0  9996,2 52501  53.2151 236.4042 0001417  92.3463 135.3096 15.08829121 48863,6917.914,95.438,540.759,538.798,0.0
52501.0,STARLINK-3907,PAYLOAD,2023-03-21 14:00:01,15.08874494,0.0001405,53.2152,235.6569,88.2887,325.22,-0.0027052,-0.00043124,0.0,0 STARLINK-3907,1 52501U 22049BC  23080.58335648 -.00043124  00000-0 -27052-2 0  9999,2 52501  53.2152 235.6569 0001405  88.2887 325.2200 15.08874494  1308,6917.775,95.435,540.612,538.668,0.0
52501.0,STARLINK-3907,PAYLOAD,2023-03-21 22:00:00,15.08814618,0.0001346,53.2152,234.1614,86.965,338.1135,0.00077463,0.00012053,0.0,0 STARLINK-3907,1 52501U 22049BC  23080.91667824  .00012053  00000-0  77463-3 0  9997,2 52501  53.2152 234.1614 0001346  86.9650 338.1135 15.08814618 48943,6917.958,95.439,540.754,538.892,0.0
52501.0,STARLINK-3907,PAYLOAD,2023-03-22 00:00:00,15.08810873,0.0001346,53.2151,233.7868,91.1217,66.8526,0.0010133,0.00015863,0.0,0 STARLINK-3907,1 52501U 22049BC  23081.00001157  .00015863  00000-0  10133-2 0  9991,2 52501  53.2151 233.7868 0001346  91.1217  66.8526 15.08810873  1302,6917.969,95.439,540.766,538.903,0.0
52501.0,STARLINK-3907,PAYLOAD,2023-03-22 22:00:00,15.08808956,0.0001291,53.2156,229.6721,97.5755,2.2394,0.0025983,0.00041271,0.0,0 STARLINK-3907,1 52501U 22049BC  23081.91667824  .00041271  00000-0  25983-2 0  9991,2 52501  53.2156 229.6721 0001291  97.5755   2.2394 15.08808956  1301,6917.975,95.44,540.733,538.947,0.0
52501.0,STARLINK-3907,PAYLOAD,2023-03-23 06:00:00,15.08820098,0.00013,53.2159,228.174,108.6033,2.8109,0.0047387,0.000759,0.0,0 STARLINK-3907,1 52501U 22049BC  23082.25001157  .00075900  00000-0  47387-2 0  9998,2 52501  53.2159 228.1740 0001300 108.6033   2.8109 15.08820098 49148,6917.941,95.439,540.706,538.907,0.0
52501.0,STARLINK-3907,PAYLOAD,2023-03-23 14:00:01,15.08923552,0.0001229,53.216,226.6787,95.7486,27.3219,-0.0072802,-0.00114574,0.0,0 STARLINK-3907,1 52501U 22049BC  23082.58335648 -.00114574  00000-0 -72802-2 0  9992,2 52501  53.2160 226.6787 0001229  95.7486  27.3219 15.08923552  1301,6917.625,95.432,540.34,538.64,0.0
52501.0,STARLINK-3907,PAYLOAD,2023-03-24 00:00:00,15.08863621,0.0001546,52.9982,202.4918,93.0092,304.1997,0.077101,0.01335309,0.0,0 STARLINK-3907,1 52501U 22049BC  23083.00001157  .01335309  00000-0  77101-1 0  9991,2 52501  52.9982 202.4918 0001546  93.0092 304.1997 15.08863621  1302,6917.808,95.436,540.743,538.604,0.0
52501.0,STARLINK-3907,PAYLOAD,2023-03-25 21:05:55,15.08837661,0.0001165,53.2152,216.3723,116.5543,243.5569,0.0026398,0.00041972,0.0,0 STARLINK-3907,1 52501U 22049BC  23084.87911023  .00041972  00000-0  26398-2 0  9991,2 52501  53.2152 216.3723 0001165 116.5543 243.5569 15.08837661 49546,6917.888,95.438,540.558,538.947,0.0
52501.0,STARLINK-3907,PAYLOAD,2023-03-25 22:41:18,15.08825812,0.0001084,53.2152,216.076,100.6978,259.4136,0.0014247,0.0002245,0.0,0 STARLINK-3907,1 52501U 22049BC  23084.94535259  .00022450  00000-0  14247-2 0  9992,2 52501  53.2152 216.0760 0001084 100.6978 259.4136 15.08825812 49394,6917.924,95.438,540.539,539.039,0.0
52501.0,STARLINK-3907,PAYLOAD,2023-03-26 01:52:05,15.08795667,0.0001375,53.215,215.48,121.9377,238.1749,0.00020869,3.031e-05,0.0,0 STARLINK-3907,1 52501U 22049BC  23085.07783938  .00003031  00000-0  20869-3 0  9998,2 52501  53.2150 215.4800 0001375 121.9377 238.1749 15.08795667 49570,6918.016,95.44,540.832,538.93,0.0
52501.0,STARLINK-3907,PAYLOAD,2023-03-26 16:10:34,15.0882031,0.0001283,53.215,212.8045,120.2407,239.8713,0.0021177,0.00033558,0.0,0 STARLINK-3907,1 52501U 22049BC  23085.67401404  .00033558  00000-0  21177-2 0  9998,2 52501  53.2150 212.8045 0001283 120.2407 239.8713 15.08820310 49669,6917.941,95.439,540.693,538.918,0.0
52501.0,STARLINK-3907,PAYLOAD,2023-03-26 20:56:44,15.08829834,0.0001295,53.2149,211.9124,117.8397,242.2727,0.0023856,0.00037873,0.0,0 STARLINK-3907,1 52501U 22049BC  23085.87273716  .00037873  00000-0  23856-2 0  9993,2 52501  53.2149 211.9124 0001295 117.8397 242.2727 15.08829834 49537,6917.911,95.438,540.672,538.881,0.0
52501.0,STARLINK-3907,PAYLOAD,2023-03-27 01:42:54,15.08832036,0.0001327,53.2149,211.0206,114.2889,245.8242,0.0020313,0.00032181,0.0,0 STARLINK-3907,1 52501U 22049BC  23086.07146117  .00032181  00000-0  20313-2 0  9992,2 52501  53.2149 211.0206 0001327 114.2889 245.8242 15.08832036 49722,6917.905,95.438,540.688,538.852,0.0
52501.0,STARLINK-3907,PAYLOAD,2023-03-27 14:25:59,15.08860135,0.0001299,53.2148,208.6418,111.0437,249.0694,0.0019359,0.00030673,0.0,0 STARLINK-3907,1 52501U 22049BC  23086.60137914  .00030673  00000-0  19359-2 0  9998,2 52501  53.2148 208.6418 0001299 111.0437 249.0694 15.08860135 49649,6917.819,95.436,540.582,538.785,0.0
52501.0,STARLINK-3907,PAYLOAD,2023-03-27 17:36:45,15.08870017,0.0001362,53.2148,208.0469,108.7157,251.3983,0.002018,0.00032001,0.0,0 STARLINK-3907,1 52501U 22049BC  23086.73385665  .00032001  00000-0  20180-2 0  9991,2 52501  53.2148 208.0469 0001362 108.7157 251.3983 15.08870017 49661,6917.789,95.436,540.596,538.711,0.0
52501.0,STARLINK-3907,PAYLOAD,2023-03-28 01:33:41,15.08850871,0.0001576,53.2148,206.5607,75.4216,284.6951,0.0012273,0.00019304,0.0,0 STARLINK-3907,1 52501U 22049BC  23087.06505989  .00019304  00000-0  12273-2 0  9996,2 52501  53.2148 206.5607 0001576  75.4216 284.6951 15.08850871 49874,6917.847,95.437,540.802,538.622,0.0
52501.0,STARLINK-3907,PAYLOAD,2023-03-28 14:16:46,15.08861891,0.0001117,53.2147,204.1814,84.574,275.538,0.0022028,0.00034965,0.0,0 STARLINK-3907,1 52501U 22049BC  23087.59497701  .00034965  00000-0  22028-2 0  9995,2 52501  53.2147 204.1814 0001117  84.5740 275.5380 15.08861891 49791,6917.813,95.436,540.451,538.906,0.0
52501.0,STARLINK-3907,PAYLOAD,2023-03-28 17:27:32,15.0886597,0.0001317,53.2152,203.5873,81.9686,278.1456,0.0021437,0.00034018,0.0,0 STARLINK-3907,1 52501U 22049BC  23087.72745605  .00034018  00000-0  21437-2 0  9991,2 52501  53.2152 203.5873 0001317  81.9686 278.1456 15.08865970 49972,6917.801,95.436,540.577,538.755,0.0
52501.0,STARLINK-3907,PAYLOAD,2023-03-29 12:32:09,15.08866176,0.0001213,53.2155,200.0184,117.9721,242.1394,0.002279,0.00036195,0.0,0 STARLINK-3907,1 52501U 22049BC  23088.52233500  .00036195  00000-0  22790-2 0  9997,2 52501  53.2155 200.0184 0001213 117.9721 242.1394 15.08866176 50093,6917.8,95.436,540.505,538.826,0.0
52501.0,STARLINK-3907,PAYLOAD,2023-03-30 13:58:20,15.08834841,0.0001305,53.2156,195.2611,82.9013,277.2127,0.0022989,0.00036483,0.0,0 STARLINK-3907,1 52501U 22049BC  23089.58218653  .00036483  00000-0  22989-2 0  9996,2 52501  53.2156 195.2611 0001305  82.9013 277.2127 15.08834841 50256,6917.896,95.438,540.664,538.858,0.0
52501.0,STARLINK-3907,PAYLOAD,2023-03-30 18:44:30,15.08858873,0.0001293,53.2154,194.3679,78.2565,281.8572,0.0029977,0.00047769,0.0,0 STARLINK-3907,1 52501U 22049BC  23089.78090495  .00047769  00000-0  29977-2 0  9993,2 52501  53.2154 194.3679 0001293  78.2565 281.8572 15.08858873 50126,6917.823,95.436,540.582,538.793,0.0
52501.0,STARLINK-3907,PAYLOAD,2023-03-30 23:30:39,15.08850003,0.0001162,53.2158,193.4769,78.2134,281.8989,0.0015248,0.00024069,0.0,0 STARLINK-3907,1 52501U 22049BC  23089.97962535  .00024069  00000-0  15248-2 0  9991,2 52501  53.2158 193.4769 0001162  78.2134 281.8989 15.08850003 50317,6917.85,95.437,540.519,538.911,0.0
